ELYSIUM STAR 2 & LFF    
1 43760U 18099C   24253.15502124  .00142634  00000+0  37429-2 0  9999
2 43760  97.5056 321.7896 0004175 309.4591  50.6283 15.38069306316081
